{"type": "FeatureCollection", "features": [ {"type": "Feature", "properties": {"norad_id": 43010, "name": "FENGYUN 3D", "group": "weather", "lat": -56.637776086161246, "lon": -25.1835691678745, "alt_km": 834.2266548737389, "timestamp": "2025-12-20T11:30:28.013614+00:00", "meta": {"OBJECT_NAME": "FENGYUN 3D", "OBJECT_ID": "2017-072A", "EPOCH": "2025-12-20T03:19:19.415424", "MEAN_MOTION": 14.19685552, "ECCENTRICITY": 0.000132, "INCLINATION": 98.9894, "RA_OF_ASC_NODE": 320.5594, "ARG_OF_PERICENTER": 157.8874, "MEAN_ANOMALY": 202.2359, "EPHEMERIS_TYPE": 0, "CLASSIFICATION_TYPE": "U", "NORAD_CAT_ID": 43010, "ELEMENT_SET_NO": 999, "REV_AT_EPOCH": 41958, "BSTAR": 8.6079e-07, "MEAN_MOTION_DOT": -4.4e-07, "MEAN_MOTION_DDOT": 0}, "tle": {"line1": "1 43010U 17072A   25354.13841916 -.00000044  00000+0  86079-6 0  9991", "line2": "2 43010  98.9894 320.5594 0001320 157.8874 202.2359 14.19685552419587"}}, "geometry": {"type": "Point", "coordinates": [-25.1835691678745, -56.637776086161246]}}, {"type": "Feature", "properties": {"norad_id": 43013, "name": "NOAA 20 (JPSS-1)", "group": "weather", "lat": 81.23300011310775, "lon": -159.988140209471, "alt_km": 818.0059633756027, "timestamp": "2025-12-20T11:30:28.013625+00:00", "meta": {"OBJECT_NAME": "NOAA 20 (JPSS-1)", "OBJECT_ID": "2017-073A", "EPOCH": "2025-12-20T02:37:36.484320", "MEAN_MOTION": 14.19527538, "ECCENTRICITY": 0.0002125, "INCLINATION": 98.7609, "RA_OF_ASC_NODE": 290.3258, "ARG_OF_PERICENTER": 76.6307, "MEAN_ANOMALY": 283.5106, "EPHEMERIS_TYPE": 0, "CLASSIFICATION_TYPE": "U", "NORAD_CAT_ID": 43013, "ELEMENT_SET_NO": 999, "REV_AT_EPOCH": 41906, "BSTAR": 4.287e-05, "MEAN_MOTION_DOT": 4.6e-07, "MEAN_MOTION_DDOT": 0}, "tle": {"line1": "1 43013U 17073A   25354.10945005  .00000046  00000+0  42870-4 0  9996", "line2": "2 43013  98.7609 290.3258 0002125  76.6307 283.5106 14.19527538419060"}}, "geometry": {"type": "Point", "coordinates": [-159.988140209471, 81.23300011310775]}}, {"type": "Feature", "properties": {"norad_id": 43226, "name": "GOES 17", "group": "weather", "lat": 0.4745421298122287, "lon": 172.3817819128544, "alt_km": 35790.381123576415, "timestamp": "2025-12-20T11:30:28.013646+00:00", "meta": {"OBJECT_NAME": "GOES 17", "OBJECT_ID": "2018-022A", "EPOCH": "2025-12-20T04:13:38.642016", "MEAN_MOTION": 1.00270789, "ECCENTRICITY": 0.0003086, "INCLINATION": 0.4757, "RA_OF_ASC_NODE": 89.1576, "ARG_OF_PERICENTER": 191.4696, "MEAN_ANOMALY": 142.2937, "EPHEMERIS_TYPE": 0, "CLASSIFICATION_TYPE": "U", "NORAD_CAT_ID": 43226, "ELEMENT_SET_NO": 999, "REV_AT_EPOCH": 2862, "BSTAR": 0, "MEAN_MOTION_DOT": -1.59e-06, "MEAN_MOTION_DDOT": 0}, "tle": {"line1": "1 43226U 18022A   25354.17614169 -.00000159  00000+0  00000+0 0  9998", "line2": "2 43226   0.4757  89.1576 0003086 191.4696 142.2937  1.00270789 28621"}}, "geometry": {"type": "Point", "coordinates": [172.3817819128544, 0.4745421298122287]}}, {"type": "Feature", "properties": {"norad_id": 43491, "name": "FENGYUN 2H", "group": "weather", "lat": -2.5406372286244885, "lon": -18.706494017906255, "alt_km": 35787.27698436639, "timestamp": "2025-12-20T11:30:28.013662+00:00", "meta": {"OBJECT_NAME": "FENGYUN 2H", "OBJECT_ID": "2018-050A", "EPOCH": "2025-12-20T01:37:25.892256", "MEAN_MOTION": 1.00271255, "ECCENTRICITY": 0.0002373, "INCLINATION": 2.5689, "RA_OF_ASC_NODE": 81.2531, "ARG_OF_PERICENTER": 165.8172, "MEAN_ANOMALY": 305.5468, "EPHEMERIS_TYPE": 0, "CLASSIFICATION_TYPE": "U", "NORAD_CAT_ID": 43491, "ELEMENT_SET_NO": 999, "REV_AT_EPOCH": 2764, "BSTAR": 0, "MEAN_MOTION_DOT": -1.08e-06, "MEAN_MOTION_DDOT": 0}, "tle": {"line1": "1 43491U 18050A   25354.06766079 -.00000108  00000+0  00000+0 0  9993", "line2": "2 43491   2.5689  81.2531 0002373 165.8172 305.5468  1.00271255 27641"}}, "geometry": {"type": "Point", "coordinates": [-18.706494017906255, -2.5406372286244885]}}, {"type": "Feature", "properties": {"norad_id": 43689, "name": "METOP-C", "group": "weather", "lat": -72.25035660295424, "lon": 80.67858344613758, "alt_km": 827.7100229798871, "timestamp": "2025-12-20T11:30:28.013674+00:00", "meta": {"OBJECT_NAME": "METOP-C", "OBJECT_ID": "2018-087A", "EPOCH": "2025-12-20T03:24:39.440160", "MEAN_MOTION": 14.21487049, "ECCENTRICITY": 8.91e-05, "INCLINATION": 98.6919, "RA_OF_ASC_NODE": 51.798, "ARG_OF_PERICENTER": 26.1664, "MEAN_ANOMALY": 333.9558, "EPHEMERIS_TYPE": 0, "CLASSIFICATION_TYPE": "U", "NORAD_CAT_ID": 43689, "ELEMENT_SET_NO": 999, "REV_AT_EPOCH": 36939, "BSTAR": 6.5342e-05, "MEAN_MOTION_DOT": 9.9e-07, "MEAN_MOTION_DDOT": 0}, "tle": {"line1": "1 43689U 18087A   25354.14212315  .00000099  00000+0  65342-4 0  9993", "line2": "2 43689  98.6919  51.7980 0000891  26.1664 333.9558 14.21487049369393"}}, "geometry": {"type": "Point", "coordinates": [80.67858344613758, -72.25035660295424]}}, {"type": "Feature", "properties": {"norad_id": 43823, "name": "GEO-KOMPSAT-2A", "group": "weather", "lat": -0.02053399032138554, "lon": 30.18679096937678, "alt_km": 35785.70709417131, "timestamp": "2025-12-20T11:30:28.013686+00:00", "meta": {"OBJECT_NAME": "GEO-KOMPSAT-2A", "OBJECT_ID": "2018-100A", "EPOCH": "2025-12-20T00:00:38.824704", "MEAN_MOTION": 1.00271526, "ECCENTRICITY": 4.33e-05, "INCLINATION": 0.0525, "RA_OF_ASC_NODE": 147.2105, "ARG_OF_PERICENTER": 316.6057, "MEAN_ANOMALY": 113.4584, "EPHEMERIS_TYPE": 0, "CLASSIFICATION_TYPE": "U", "NORAD_CAT_ID": 43823, "ELEMENT_SET_NO": 999, "REV_AT_EPOCH": 2583, "BSTAR": 0, "MEAN_MOTION_DOT": -3.19e-06, "MEAN_MOTION_DDOT": 0}, "tle": {"line1": "1 43823U 18100A   25354.00044936 -.00000319  00000+0  00000+0 0  9997", "line2": "2 43823   0.0525 147.2105 0000433 316.6057 113.4584  1.00271526 25830"}}, "geometry": {"type": "Point", "coordinates": [30.18679096937678, -0.02053399032138554]}}, {"type": "Feature", "properties": {"norad_id": 44387, "name": "METEOR-M2 2", "group": "weather", "lat": 74.99680604898855, "lon": -61.46215551421529, "alt_km": 803.0182772765847, "timestamp": "2025-12-20T11:30:28.013697+00:00", "meta": {"OBJECT_NAME": "METEOR-M2 2", "OBJECT_ID": "2019-038A", "EPOCH": "2025-12-20T04:23:58.348608", "MEAN_MOTION": 14.24294728, "ECCENTRICITY": 0.0001594, "INCLINATION": 98.897, "RA_OF_ASC_NODE": 334.0034, "ARG_OF_PERICENTER": 132.3169, "MEAN_ANOMALY": 227.8145, "EPHEMERIS_TYPE": 0, "CLASSIFICATION_TYPE": "U", "NORAD_CAT_ID": 44387, "ELEMENT_SET_NO": 999, "REV_AT_EPOCH": 33581, "BSTAR": 7.1985e-05, "MEAN_MOTION_DOT": 1.2e-06, "MEAN_MOTION_DDOT": 0}, "tle": {"line1": "1 44387U 19038A   25354.18331422  .00000120  00000+0  71985-4 0  9996", "line2": "2 44387  98.8970 334.0034 0001594 132.3169 227.8145 14.24294728335812"}}, "geometry": {"type": "Point", "coordinates": [-61.46215551421529, 74.99680604898855]}}, {"type": "Feature", "properties": {"norad_id": 47719, "name": "ARKTIKA-M 1", "group": "weather", "lat": 31.79727499140679, "lon": -115.26765615964057, "alt_km": 15525.393593012966, "timestamp": "2025-12-20T11:30:28.013710+00:00", "meta": {"OBJECT_NAME": "ARKTIKA-M 1", "OBJECT_ID": "2021-016A", "EPOCH": "2025-12-20T01:15:32.338368", "MEAN_MOTION": 2.00630446, "ECCENTRICITY": 0.7207926, "INCLINATION": 63.1764, "RA_OF_ASC_NODE": 82.997, "ARG_OF_PERICENTER": 269.153, "MEAN_ANOMALY": 15.5565, "EPHEMERIS_TYPE": 0, "CLASSIFICATION_TYPE": "U", "NORAD_CAT_ID": 47719, "ELEMENT_SET_NO": 999, "REV_AT_EPOCH": 3519, "BSTAR": 0, "MEAN_MOTION_DOT": -1.14e-06, "MEAN_MOTION_DDOT": 0}, "tle": {"line1": "1 47719U 21016A   25354.05245762 -.00000114  00000+0  00000+0 0  9993", "line2": "2 47719  63.1764  82.9970 7207926 269.1530  15.5565  2.00630446 35191"}}, "geometry": {"type": "Point", "coordinates": [-115.26765615964057, 31.79727499140679]}}, {"type": "Feature", "properties": {"norad_id": 49008, "name": "FENGYUN 3E", "group": "weather", "lat": -80.25668505451937, "lon": 58.623100802621735, "alt_km": 832.8431627331793, "timestamp": "2025-12-20T11:30:28.013721+00:00", "meta": {"OBJECT_NAME": "FENGYUN 3E", "OBJECT_ID": "2021-062A", "EPOCH": "2025-12-20T03:27:17.095104", "MEAN_MOTION": 14.19881032, "ECCENTRICITY": 7.31e-05, "INCLINATION": 98.7468, "RA_OF_ASC_NODE": 354.5775, "ARG_OF_PERICENTER": 211.9921, "MEAN_ANOMALY": 148.1211, "EPHEMERIS_TYPE": 0, "CLASSIFICATION_TYPE": "U", "NORAD_CAT_ID": 49008, "ELEMENT_SET_NO": 999, "REV_AT_EPOCH": 23117, "BSTAR": 0.00010004, "MEAN_MOTION_DOT": 1.68e-06, "MEAN_MOTION_DDOT": 0}, "tle": {"line1": "1 49008U 21062A   25354.14394786  .00000168  00000+0  10004-3 0  9995", "line2": "2 49008  98.7468 354.5775 0000731 211.9921 148.1211 14.19881032231176"}}, "geometry": {"type": "Point", "coordinates": [58.623100802621735, -80.25668505451937]}}, {"type": "Feature", "properties": {"norad_id": 51850, "name": "GOES 18", "group": "weather", "lat": -0.0003209779559795537, "lon": 124.93363816073239, "alt_km": 35787.499991164164, "timestamp": "2025-12-20T11:30:28.013733+00:00", "meta": {"OBJECT_NAME": "GOES 18", "OBJECT_ID": "2022-021A", "EPOCH": "2025-12-20T04:34:41.289024", "MEAN_MOTION": 1.00272898, "ECCENTRICITY": 4.89e-05, "INCLINATION": 0.0062, "RA_OF_ASC_NODE": 253.5788, "ARG_OF_PERICENTER": 82.7336, "MEAN_ANOMALY": 44.3975, "EPHEMERIS_TYPE": 0, "CLASSIFICATION_TYPE": "U", "NORAD_CAT_ID": 51850, "ELEMENT_SET_NO": 999, "REV_AT_EPOCH": 479, "BSTAR": 0, "MEAN_MOTION_DOT": 1.2e-06, "MEAN_MOTION_DDOT": 0}, "tle": {"line1": "1 51850U 22021A   25354.19075566  .00000120  00000+0  00000+0 0  9995", "line2": "2 51850   0.0062 253.5788 0000489  82.7336  44.3975  1.00272898  4796"}}, "geometry": {"type": "Point", "coordinates": [124.93363816073239, -0.0003209779559795537]}}]}